CUTE-1 (CO-55)          
1 27844U 03031E   22069.59556316  .00000209  00000+0  11357-3 0  9991
2 27844  98.6818  78.7645 0010434  34.2319 325.9530 14.22391932969814
CUBESAT XI-IV (CO-57)   
1 27848U 03031J   22069.52805049  .00000168  00000+0  95952-4 0  9996
2 27848  98.6867  79.2357 0010536  47.4828 312.7238 14.21957123969652
CUBESAT XI-V            
1 28895U 05043F   22069.29536311  .00000820  00000+0  16481-3 0  9995
2 28895  98.0892 202.3114 0017950  93.8417 266.4838 14.64127764872902
CUTE-1.7+APD II (CO-65) 
1 32785U 08021C   22069.46834359  .00001718  00000+0  18741-3 0  9997
2 32785  97.6466  43.5498 0012224 195.1881 164.8971 14.89140503751758
AAUSAT-II               
1 32788U 08021F   22069.51115485  .00004301  00000+0  38302-3 0  9994
2 32788  97.5280  58.4381 0013472  95.5654 264.7105 14.96478946753638
DELFI-C3 (DO-64)        
1 32789U 08021G   22069.57569908  .00008600  00000+0  51497-3 0  9990
2 32789  97.3512  99.5816 0009549 310.6683  49.3717 15.11205697756983
SEEDS II (CO-66)        
1 32791U 08021J   22069.47704250  .00002625  00000+0  26386-3 0  9993
2 32791  97.6025  49.1675 0013623 153.5185 206.6733 14.92007028752439
SWISSCUBE               
1 35932U 09051B   22069.53940950  .00000502  00000+0  12325-3 0  9993
2 35932  98.5812 282.6515 0007568   0.2106 359.9093 14.56711760661730
BEESAT-1                
1 35933U 09051C   22069.49622268  .00000451  00000+0  11188-3 0  9997
2 35933  98.5757 284.2997 0006030  15.3992 344.7388 14.56747750661843
ITUPSAT1                
1 35935U 09051E   22069.52227481  .00000408  00000+0  10412-3 0  9992
2 35935  98.5859 284.4070 0008349  14.6930 345.4507 14.55868396661481
TISAT 1                 
1 36799U 10035E   22069.50469663  .00002232  00000+0  22411-3 0  9992
2 36799  98.1930 276.0255 0013047  63.5872 296.6684 14.92321370633004
M-CUBED & EXP-1 PRIME   
1 37855U 11061F   22069.77535961  .00006655  00000+0  30941-3 0  9990
2 37855 101.7093 136.9943 0160054 357.4574   2.5810 15.09949834566800
AEROCUBE 4.5A           
1 38767U 12048K   22069.40948493  .00005407  00000+0  38436-3 0  9998
2 38767  64.6660  61.6734 0177249 289.4959  68.7081 14.93914351135980
AEROCUBE 4.5B           
1 38768U 12048L   22069.45711051  .00006976  00000+0  45062-3 0  9997
2 38768  64.6684  18.2514 0166473 284.7066  73.5649 14.98259652136318
STRAND-1                
1 39090U 13009E   22069.51546833  .00000117  00000+0  55731-4 0  9991
2 39090  98.4110 270.1924 0008652 199.3601 160.7258 14.35251251473205
BRITE-AUSTRIA           
1 39091U 13009F   22069.49884240  .00000112  00000+0  54017-4 0  9997
2 39091  98.4119 269.3335 0009901 207.4953 152.5711 14.35235107473238
SOMP                    
1 39134U 13015E   22069.27619795  .00012893  00000+0  50787-3 0  9997
2 39134  64.8644  26.6217 0031100 296.4296  63.3644 15.25446286491712
BEESAT-3                
1 39135U 13015F   22069.35220552  .00009885  00000+0  43903-3 0  9995
2 39135  64.8673  60.2628 0032411 305.2676  54.5420 15.21542333491026
BEESAT-2                
1 39136U 13015G   22069.34153763  .00007951  00000+0  36783-3 0  9994
2 39136  64.8752  67.8893 0010859 282.4460  77.5452 15.20728383490839
NEE-01 PEGASO           
1 39151U 13018B   22069.51781288  .00001161  00000+0  15784-3 0  9997
2 39151  97.9833 175.5983 0016272 212.2640 147.7578 14.80633244479030
ESTCUBE 1               
1 39161U 13021C   22069.70961879  .00000774  00000+0  12891-3 0  9994
2 39161  97.9160 149.5072 0010213  25.8805 334.2908 14.72713913474931
POPACS 1                
1 39268U 13055D   22069.49753580  .00012337  00000+0  31844-3 0  9990
2 39268  81.0004 345.6880 0585040 138.6360 226.0712 14.47259295438975
POPACS 2                
1 39269U 13055E   22069.63341268  .00008013  00000+0  22585-3 0  9991
2 39269  81.0141  39.4817 0653933 278.1323  74.6225 14.30970247437268
POPACS 3                
1 39270U 13055F   22069.03607951  .00009658  00000+0  29526-3 0  9999
2 39270  81.0129  71.2490 0695467   8.3144 352.8868 14.20410611414519
ZACUBE-1 (TSHEPISOSAT)  
1 39417U 13066B   22069.53017931  .00001975  00000+0  24864-3 0  9996
2 39417  97.6260  45.5849 0058565  10.6102 349.6333 14.81916273448470
WNISAT-1                
1 39423U 13066H   22069.64116343  .00000430  00000+0  93560-4 0  9997
2 39423  97.7673 318.3230 0175957  86.4113 275.7198 14.53358340440091
TRITON-1                
1 39427U 13066M   22069.82570469  .00000963  00000+0  15914-3 0  9991
2 39427  97.8054   9.9877 0111594 219.3604 139.9455 14.68597803444498
DELFI-N3XT              
1 39428U 13066N   22069.41075585  .00001761  00000+0  28145-3 0  9993
2 39428  97.8074   8.1177 0117235 234.1128 124.9150 14.68589520443996
GOMX-1                  
1 39430U 13066Q   22069.56300940  .00001447  00000+0  26708-3 0  9992
2 39430  97.8152 342.4006 0150180 357.1887   2.8449 14.59907169441867
CUBEBUG-2 (LO-74)       
1 39440U 13066AA  22069.46679905  .00001483  00000+0  20836-3 0  9998
2 39440  97.7144  31.2817 0080896  92.5008 268.5467 14.76603795446876
NEE-02 KRYSAOR          
1 39441U 13066AB  22069.59095378  .00000986  00000+0  14452-3 0  9993
2 39441  97.7251  28.6362 0082510 104.7148 256.3225 14.75444370445458
FUNCUBE-1 (AO-73)       
1 39444U 13066AE  22069.48102093  .00002566  00000+0  31393-3 0  9996
2 39444  97.6147  47.9336 0057216 359.6843   0.4325 14.82909917446852
UWE-3                   
1 39446U 13066AG  22069.45632183  .00001867  00000+0  24829-3 0  9992
2 39446  97.6736  37.8947 0070538  52.8666 307.8962 14.79155399445821
AEROCUBE 5A             
1 39465U 13072D   22069.69733195  .00026408  00000+0  17135-2 0  9990
2 39465 120.4905 305.5366 0219742 172.1675 188.2896 14.90281157134875
AEROCUBE 5B             
1 39466U 13072E   22069.54096804  .00037272  00000+0  18262-2 0  9997
2 39466 120.4631  21.4755 0174240 187.4268 172.4203 15.05540267135783
BRITE-CA1 (TORONTO)     
1 40020U 14033L   22069.44627973  .00000717  00000+0  12988-3 0  9993
2 40020  97.7644 233.5236 0086273 218.6008 140.9009 14.66883443413143
DUCHIFAT-1              
1 40021U 14033M   22069.58475625  .00003134  00000+0  31402-3 0  9992
2 40021  98.0019  18.1176 0013042  13.9439 346.2137 14.92070167419950
NANOSATC-BR1            
1 40024U 14033Q   22069.58474947  .00003000  00000+0  30849-3 0  9997
2 40024  97.9765  11.9891 0012624  20.5794 339.5930 14.91050650419249
QB50P1                  
1 40025U 14033R   22069.41977164  .00002215  00000+0  23570-3 0  9999
2 40025  97.9529   6.1380 0013066  29.6443 330.5512 14.89945612419019
QB50P2                  
1 40032U 14033Y   22069.54302986  .00002054  00000+0  22177-3 0  9998
2 40032  97.9320   2.0003 0012433  27.3671 332.8198 14.89419361418895
PERSEUS-M2              
1 40037U 14033AD  22069.59064819  .00000796  00000+0  95138-4 0  9997
2 40037  97.8955 352.3958 0015413  46.4088 313.8404 14.86881225418436
PERSEUS-M1              
1 40039U 14033AF  22069.49233322  .00000803  00000+0  96889-4 0  9998
2 40039  97.8869 350.2359 0015247  45.7819 314.4646 14.86496857418307
POLYITAN-1              
1 40042U 14033AJ  22069.56612445  .00002832  00000+0  30013-3 0  9997
2 40042  97.9631   7.3523 0015126  20.4699 339.7121 14.89859864418924
TIGRISAT                
1 40043U 14033AK  22069.51648828  .00000935  00000+0  14276-3 0  9992
2 40043  97.6586 264.1081 0060741 116.3780 244.3682 14.74778538415047
AEROCUBE 6A             
1 40045U 14033AM  22069.51031982  .00001004  00000+0  14838-3 0  9993
2 40045  97.6738 272.5137 0058347 105.1082 255.6593 14.76146493415185
AEROCUBE 6B             
1 40046U 14033AN  22069.50342485  .00001651  00000+0  23880-3 0  9991
2 40046  97.6643 271.0463 0057591 103.5883 257.1751 14.76296241415188
UKUBE-1                 
1 40074U 14037F   22069.51655253  .00001622  00000+0  19732-3 0  9996
2 40074  98.3973 304.9577 0003186 247.9355 112.1525 14.84974780415384
BRITE-PL2 (HEWELIUSZ)   
1 40119U 14049B   22069.49596055  .00000893  00000+0  11114-3 0  9995
2 40119  97.8808 166.1844 0016837 201.8911 158.1586 14.84878522409325
FIREBIRD 4              
1 40378U 15003C   22069.50850186  .00010947  00000+0  35908-3 0  9991
2 40378  99.1140 272.7863 0108391 359.5607   0.5513 15.26284956393311
GRIFEX                  
1 40379U 15003D   22069.76798361  .00007272  00000+0  27340-3 0  9994
2 40379  99.1192 260.0122 0121691  37.7509 323.2181 15.20842567392622
CP10 (EXOCUBE)          
1 40380U 15003E   22069.47641567  .00006272  00000+0  25172-3 0  9999
2 40380  99.1241 252.9501 0128411  61.0041 300.3987 15.18129305392139
TIANWANG 1A (TW-1A)     
1 40928U 15051D   22069.57031770  .00027932  00000+0  46140-3 0  9994
2 40928  97.0519  93.5882 0010047  44.8452  81.4181 15.52156031362867
EXACTVIEW 9             
1 40936U 15052G   22067.29544545  .00001617  00000+0  13557-3 0  9998
2 40936   6.0030 175.4062 0010129 167.4109 192.6272 14.76915210348234
AEROCUBE 5C             
1 40965U 15058B   22069.62438756  .00000995  00000+0  12312-3 0  9997
2 40965  64.7780  31.1762 0203979 230.9387 127.3416 14.75211240134380
AEROCUBE 7              
1 40966U 15058C   22069.58903806  .00001272  00000+0  15117-3 0  9991
2 40966  64.7782  28.7163 0202329 230.6274 127.6758 14.75669897134376
ATHENOXAT 1             
1 41168U 15077C   22069.42813464  .00012857  00000+0  57442-3 0  9998
2 41168  14.9832 102.8334 0010332 286.9906 110.0124 15.18157139345225
GALASSIA                
1 41170U 15077E   22069.32044134  .00009650  00000+0  42396-3 0  9999
2 41170  14.9889  94.0246 0011276 316.6723  43.2712 15.18057399345126
VELOX-II                
1 41171U 15077F   22069.62478388  .00007350  00000+0  35461-3 0  9995
2 41171  14.9904 160.2089 0008284 170.8253 189.2220 15.14093924344662
HORYU-4                 
1 41340U 16012D   22069.54887542  .00002727  00000+0  19340-3 0  9991
2 41340  31.0041 270.4149 0013813 297.1621  62.7607 15.02576890332834
